STARLINK-1172
1 15074C 20006AG  21326.14933538  .00001354  00000-0  90705-4 0  3260
2 15074  53.0540 108.0817 0001434  72.0066 205.6196 15.06394758    15
